NAYIF-1 (EO-88)         
1 42017U 17008BX  23058.12807691  .00069492  00000+0  12161-2 0  9994
2 42017  97.2314 127.0642 0002784  63.2125 296.9412 15.50381113336276
ZHUHAI-1 02 (CAS-4B)    
1 42759U 17034B   23058.34064035  .00011578  00000+0  62097-3 0  9993
2 42759  43.0193   5.3184 0009231 113.3334  23.6114 15.14926559314960
ZHUHAI-1 01 (CAS-4A)    
1 42761U 17034D   23058.36246780  .00011038  00000+0  59074-3 0  9999
2 42761  43.0183   3.7796 0009810 117.2450  31.2368 15.15033980314973
MAX VALIER SAT          
1 42778U 17036P   23058.34657305  .00026111  00000+0  80874-3 0  9996
2 42778  97.1743  96.0896 0010843 132.2631 227.9534 15.33371297315869
RADFXSAT (FOX-1B)       
1 43017U 17073E   23058.23867906  .00011372  00000+0  81151-3 0  9994
2 43017  97.6467 306.9534 0241443  71.9280 290.8075 14.84080456284860
FOX-1D (AO-92)          
1 43137U 18004AC  23058.21421885  .00043871  00000+0  11823-2 0  9999
2 43137  97.3392 136.8206 0007053 171.5445 188.5920 15.37667955285362
DIWATA-2B               
1 43678U 18084H   23058.42428349  .00002706  00000+0  26663-3 0  9993
2 43678  98.0029 200.3395 0010255 158.0138 202.1557 14.92885677235884
ES'HAIL 2               
1 43700U 18090A   23058.24789521  .00000138  00000+0  00000+0 0  9998
2 43700   0.0138 139.0104 0001236 186.2905 306.5082  1.00274563 15580
FOX-1CLIFF (AO-95)      
1 43770U 18099N   23058.43199649  .00008770  00000+0  73916-3 0  9991
2 43770  97.5863 122.9531 0014127 138.8020 221.4272 14.98339110231163
ITASAT 1                
1 43786U 18099AE  23058.21659629  .00006673  00000+0  56505-3 0  9998
2 43786  97.5914 123.7726 0015152 129.2460 231.0110 14.98234952231170
JY1SAT (JO-97)          
1 43803U 18099AX  23058.12208995  .00007957  00000+0  65652-3 0  9993
2 43803  97.5854 123.5637 0016101 128.7602 231.5063 14.99166223231199
UWE-4                   
1 43880U 18111E   23058.19413899  .00010089  00000+0  80455-3 0  9999
2 43880  97.6497 325.1299 0014659 179.2083 180.9166 15.00429012227863
NEXUS (FO-99)           
1 43937U 19003F   23058.01376486  .00040376  00000+0  97420-3 0  9996
2 43937  97.1048  87.4108 0014403 323.9268  36.1006 15.40990674229015
JAISAT-1                
1 44419U 19038F   23057.97368504  .00025628  00000+0  10538-2 0  9993
2 44419  97.6667  36.5626 0015055 340.1294  19.9354 15.24044681201719
DUCHIFAT-3              
1 44854U 19089C   23058.31956948  .00009860  00000+0  70549-3 0  9995
2 44854  36.9660  26.8901 0006513 152.7534 355.4959 15.03943494176270
CAS-6 (TIANQIN 1)       
1 44881U 19093C   23058.40690816  .00001169  00000+0  15303-3 0  9990
2 44881  97.8682 138.7189 0016127  77.5751 282.7293 14.82186900172533
RS-44 & BREEZE-KM R/B   
1 44909U 19096E   23058.37777481  .00000026  00000+0  53534-4 0  9994
2 44909  82.5180  60.9049 0218636  83.7468 278.8488 12.79718499148119
ORBITAL FACTORY 2 (OF-2)
1 45113U 19071C   23058.45385640  .00467444  00000+0  19466-2 0  9991
2 45113  51.6257 224.2279 0006266 311.7519  48.2948 15.83890241173082
HUSKYSAT-1 (HO-107)     
1 45119U 19071J   23058.47820134  .00242679  00000+0  17091-2 0  9994
2 45119  51.6283 229.6410 0004664 329.1863  30.8861 15.72805477173006
BY70-2                  
1 45857U 20042B   23058.47823082  .00019905  00000+0  23179-2 0  9996
2 45857  97.9317 138.3713 0008425   5.1032 355.0385 14.85266527143220
SALSAT                  
1 46495U 20068K   23058.30750072  .00007792  00000+0  53238-3 0  9994
2 46495  97.7589   5.3344 0017609 128.1795 232.1021 15.06315572132529
BY70-3                  
1 46839U 20079N   23058.51078944  .00180390  00000+0  14976-2 0  9993
2 46839  97.1604 134.9458 0003248 182.4920 304.5949 15.69626217129760
RADFXSAT-2 (AO-109)     
1 47311U 21002C   23058.16477286  .00024375  00000+0  76701-3 0  9994
2 47311  60.6824 119.5565 0033387 116.0373 244.4163 15.32378730117384
UVSQ-SAT                
1 47438U 21006AB  23058.14698679  .00016038  00000+0  73802-3 0  9993
2 47438  97.4017 117.0442 0011973 108.5967 251.6570 15.20342859115903
DIY-1 (ARDUIQUBE)       
1 47963U 21022AH  23057.96473067  .00077530  00000+0  26560-2 0  9997
2 47963  97.5105 323.1104 0010974 353.3460   6.7632 15.29847822105588
XW-3 (CAS-9)            
1 50466U 21131B   23058.50372524  .00000860  00000+0  29471-3 0  9994
2 50466  98.5581 140.3872 0005671 109.7340 250.4459 14.38702145 61581
TEVEL-3                 
1 50988U 22002E   23058.46620234  .00020328  00000+0  94463-3 0  9994
2 50988  97.4488 126.4868 0008192 251.7995 234.5250 15.19989216 62061
TEVEL-8                 
1 50989U 22002F   23058.46794307  .00020502  00000+0  95433-3 0  9990
2 50989  97.4496 126.5345 0008127 251.1797 166.5027 15.19930183 62069
TEVEL-5                 
1 50998U 22002Q   23058.46408866  .00020991  00000+0  95720-3 0  9993
2 50998  97.4483 126.7542 0009470 245.8874 242.5195 15.20623332 62084
TEVEL-6                 
1 50999U 22002R   23058.44988605  .00020840  00000+0  95016-3 0  9997
2 50999  97.4465 126.7376 0009643 245.7892 171.8817 15.20628626 62087
TEVEL-1                 
1 51013U 22002AF  23058.46068468  .00020288  00000+0  94373-3 0  9994
2 51013  97.4474 126.4366 0008086 250.9270 167.3732 15.19955554 62064
TEVEL-7                 
1 51062U 22002CG  23058.41700632  .00020216  00000+0  94096-3 0  9992
2 51062  97.4491 126.4612 0008152 251.8430 236.9215 15.19934151 62051
TEVEL-4                 
1 51063U 22002CH  23058.42000646  .00019828  00000+0  92386-3 0  9999
2 51063  97.4495 126.4554 0008149 251.5350 237.0559 15.19902414 62055
TEVEL-2                 
1 51069U 22002CP  23058.46814275  .00020305  00000+0  94361-3 0  9997
2 51069  97.4480 126.4646 0008007 251.6260 235.0007 15.19989179 62061
GREENCUBE               
1 53106U 22080B   23054.12161665 -.00000003  00000+0  00000+0 0  9991
2 53106  70.1808 359.3461 0008547 213.1330 146.8795  6.42557213 14425
RS29S (SXC3-2110 CYCLO*)
1 53373U 22096D   23058.47436247  .00028566  00000+0  94480-3 0  9999
2 53373  97.4241 324.0436 0002610 102.2667   3.1894 15.31304776 30853
RS32S (SXC3-212 MONITO*)
1 53374U 22096E   23058.59992887  .00028336  00000+0  94230-3 0  9998
2 53374  97.4226 324.1619 0003059 106.4184 349.5523 15.31129136 30872
RS34S (SXC3-218 KUZBAS*)
1 53375U 22096F   23058.45366429  .00023956  00000+0  82070-3 0  9993
2 53375  97.4238 323.9211 0002958 111.4128   5.0074 15.30199383 30844
RS23S (SXC3-21 UTMN)    
1 53376U 22096G   23058.50908741  .00024689  00000+0  83892-3 0  9996
2 53376  97.4234 324.0027 0003112 107.3248  17.6407 15.30459350 30851
RS28S (SXC3-214 MIET-A*)
1 53377U 22096H   23058.51699250  .00023477  00000+0  80439-3 0  9998
2 53377  97.4233 323.9975 0003025 109.5787  17.0954 15.30200093 30855
RS26S (KAI-1)           
1 53378U 22096J   23058.47405927  .00019261  00000+0  67434-3 0  9996
2 53378  97.4243 323.8916 0003128 110.9814 354.2909 15.29536879 30849
RS19S (SXC3-219 ISOI)   
1 53381U 22096M   23058.44986569  .00023250  00000+0  78267-3 0  9992
2 53381  97.4236 324.0765 0006354  89.9129  27.5900 15.30760140 30852
RS21S (CUBESX-HSE-2)    
1 53383U 22096P   23058.57309323  .00024786  00000+0  83037-3 0  9991
2 53383  97.4236 324.2244 0006702  90.0181  30.9797 15.30900931 30874
RS30S (SXC3-217 SIREN)  
1 53384U 22096Q   23058.58544583  .00021203  00000+0  72362-3 0  9992
2 53384  97.4236 324.1865 0006513  90.1009 341.8143 15.30333065 30870
RS20S (GEOSCAN-EDELVEIS)
1 53385U 22096R   23058.60338907  .00031168  00000+0  99112-3 0  9990
2 53385  97.4223 324.4623 0006927  84.1575   0.1914 15.32531058 30923
RS33S (SXC3-215 VIZARD) 
1 53386U 22096S   23058.44859286  .00037063  00000+0  11242-2 0  9998
2 53386  97.4234 324.5278 0007847  88.2906  29.3111 15.33993410 30903
CAS-5A (FO-118)         
1 54684U 22167C   23058.47430684  .00014188  00000+0  85859-3 0  9998
2 54684  97.5438 197.1665 0014016 353.1185  96.6287 15.10652955 12097
XW-4 (CAS-10)           
1 54816U 21035C   23058.51335866  .00478633  91405-4  16311-2 0  9998
2 54816  41.4750  98.0873 0017843  80.2542 280.0447 15.88663036 11111
